[{"OBJECT_NAME":"ION SCV-010","OBJECT_ID":"2023-054Q","EPOCH":"2026-03-09T16:02:35.904768","MEAN_MOTION":15.25210322,"ECCENTRICITY":0.00127052,"INCLINATION":97.3904,"RA_OF_ASC_NODE":319.4312,"ARG_OF_PERICENTER":188.785,"MEAN_ANOMALY":171.3168,"EPHEMERIS_TYPE":0,"CLASSIFICATION_TYPE":"U","NORAD_CAT_ID":56192,"ELEMENT_SET_NO":999,"REV_AT_EPOCH":16102,"BSTAR":0.00025045068,"MEAN_MOTION_DOT":6.231e-5,"MEAN_MOTION_DDOT":0},{"OBJECT_NAME":"STARLINK-31612","OBJECT_ID":"2024-057T","EPOCH":"2026-03-09T09:27:18.256320","MEAN_MOTION":15.27578998,"ECCENTRICITY":0.00017222,"INCLINATION":43,"RA_OF_ASC_NODE":188.7578,"ARG_OF_PERICENTER":286.8576,"MEAN_ANOMALY":73.2087,"EPHEMERIS_TYPE":0,"CLASSIFICATION_TYPE":"U","NORAD_CAT_ID":59337,"ELEMENT_SET_NO":999,"REV_AT_EPOCH":10979,"BSTAR":3.5551606e-5,"MEAN_MOTION_DOT":7.16e-6,"MEAN_MOTION_DDOT":0}]
